NORAD_CAT_ID,OBJECT_NAME,OBJECT_TYPE,EPOCH,MEAN_MOTION,ECCENTRICITY,INCLINATION,RA_OF_ASC_NODE,ARG_OF_PERICENTER,MEAN_ANOMALY,BSTAR,MEAN_MOTION_DOT,MEAN_MOTION_DDOT,TLE_LINE0,TLE_LINE1,TLE_LINE2,SEMIMAJOR_AXIS,PERIOD,APOGEE,PERIGEE,DECAYED
51787.0,STARLINK-3619,PAYLOAD,2023-02-25 20:56:23,15.08845889,0.0001192,53.2136,282.3086,90.9373,269.1756,0.00052989,8.157e-05,0.0,0 STARLINK-3619,1 51787U 22017V   23056.87249104  .00008157  00000-0  52989-3 0  9998,2 51787  53.2136 282.3086 0001192  90.9373 269.1756 15.08845889 55038,6917.862,95.437,540.552,538.903,0.0
51787.0,STARLINK-3619,PAYLOAD,2023-02-26 00:07:09,15.08849085,0.0001191,53.2135,281.7139,87.2108,272.9021,0.00072115,0.00011211,0.0,0 STARLINK-3619,1 51787U 22017V   23057.00497113  .00011211  00000-0  72115-3 0  9997,2 51787  53.2135 281.7139 0001191  87.2108 272.9021 15.08849085 55054,6917.853,95.437,540.542,538.894,0.0
51787.0,STARLINK-3619,PAYLOAD,2023-02-26 20:47:09,15.0885283,0.0001427,53.2135,277.8484,79.1008,281.0145,0.00058388,9.02e-05,0.0,0 STARLINK-3619,1 51787U 22017V   23057.86608786  .00009020  00000-0  58388-3 0  9992,2 51787  53.2135 277.8484 0001427  79.1008 281.0145 15.08852830 56820,6917.841,95.437,540.693,538.719,0.0
51787.0,STARLINK-3619,PAYLOAD,2023-02-26 22:22:33,15.08855172,0.0001327,53.2139,277.5515,79.2971,280.817,0.0004637,7.103e-05,0.0,0 STARLINK-3619,1 51787U 22017V   23057.93232677  .00007103  00000-0  46370-3 0  9990,2 51787  53.2139 277.5515 0001327  79.2971 280.8170 15.08855172 55191,6917.834,95.437,540.617,538.781,0.0
51787.0,STARLINK-3619,PAYLOAD,2023-02-27 20:37:56,15.08860583,0.0001547,53.2153,273.3895,83.4364,276.6804,0.00062845,9.734e-05,0.0,0 STARLINK-3619,1 51787U 22017V   23058.85968109  .00009734  00000-0  62845-3 0  9995,2 51787  53.2153 273.3895 0001547  83.4364 276.6804 15.08860583 55334,6917.817,95.436,540.753,538.612,0.0
51787.0,STARLINK-3619,PAYLOAD,2023-02-27 23:48:42,15.08865176,0.0001379,53.2142,272.7933,83.7905,276.3244,0.00070219,0.00010913,0.0,0 STARLINK-3619,1 51787U 22017V   23058.99215924  .00010913  00000-0  70219-3 0  9995,2 51787  53.2142 272.7933 0001379  83.7905 276.3244 15.08865176 56996,6917.803,95.436,540.622,538.714,0.0
51787.0,STARLINK-3619,PAYLOAD,2023-02-28 14:07:11,15.08824488,0.0001369,53.2151,270.1164,81.0274,279.0873,-4.7724e-05,-1.047e-05,0.0,0 STARLINK-3619,1 51787U 22017V   23059.58833089 -.00001047  00000-0 -47724-4 0  9995,2 51787  53.2151 270.1164 0001369  81.0274 279.0873 15.08824488 55441,6917.928,95.439,540.74,538.846,0.0
51787.0,STARLINK-3619,PAYLOAD,2023-02-28 20:28:44,15.08820408,0.0001354,53.2152,268.9268,73.9557,286.1584,-0.00013531,-2.44e-05,0.0,0 STARLINK-3619,1 51787U 22017V   23059.85329630 -.00002440  00000-0 -13531-3 0  9993,2 51787  53.2152 268.9268 0001354  73.9557 286.1584 15.08820408 55480,6917.94,95.439,540.742,538.869,0.0
51787.0,STARLINK-3619,PAYLOAD,2023-03-01 20:19:32,15.08838047,0.0001274,53.2143,264.4653,67.0409,293.0717,0.00060017,9.276e-05,0.0,0 STARLINK-3619,1 51787U 22017V   23060.84690291  .00009276  00000-0  60017-3 0  9991,2 51787  53.2143 264.4653 0001274  67.0409 293.0717 15.08838047 57272,6917.886,95.438,540.633,538.87,0.0
51787.0,STARLINK-3619,PAYLOAD,2023-03-02 15:24:09,15.08853801,0.0001299,53.214,260.8973,73.9462,286.1673,0.00057442,8.869e-05,0.0,0 STARLINK-3619,1 51787U 22017V   23061.64177897  .00008869  00000-0  57442-3 0  9997,2 51787  53.2140 260.8973 0001299  73.9462 286.1673 15.08853801 55756,6917.838,95.437,540.602,538.805,0.0
51787.0,STARLINK-3619,PAYLOAD,2023-03-03 12:04:09,15.08863024,0.0002028,53.2129,257.0321,85.6,274.5224,0.00076522,0.00011919,0.0,0 STARLINK-3619,1 51787U 22017V   23062.50289280  .00011919  00000-0  76522-3 0  9993,2 51787  53.2129 257.0321 0002028  85.6000 274.5224 15.08863024 57525,6917.81,95.436,541.078,538.272,0.0
51787.0,STARLINK-3619,PAYLOAD,2023-03-03 13:39:33,15.08852322,0.0001383,53.2135,256.7341,85.4975,274.6175,0.00032097,4.826e-05,0.0,0 STARLINK-3619,1 51787U 22017V   23062.56913207  .00004826  00000-0  32097-3 0  9990,2 51787  53.2135 256.7341 0001383  85.4975 274.6175 15.08852322 55895,6917.843,95.437,540.664,538.751,0.0
51787.0,STARLINK-3619,PAYLOAD,2023-03-03 20:01:05,15.08851425,0.0001543,53.2147,255.5445,85.6061,274.5107,0.0001786,2.556e-05,0.0,0 STARLINK-3619,1 51787U 22017V   23062.83409141  .00002556  00000-0  17860-3 0  9996,2 51787  53.2147 255.5445 0001543  85.6061 274.5107 15.08851425 57570,6917.845,95.437,540.778,538.643,0.0
51787.0,STARLINK-3619,PAYLOAD,2023-03-04 13:30:20,15.08844495,0.000128,53.215,252.2742,88.4319,271.682,1.7168e-05,-1.5e-07,0.0,0 STARLINK-3619,1 51787U 22017V   23063.56273150 -.00000015  00000-0  17168-4 0  9997,2 51787  53.2150 252.2742 0001280  88.4319 271.6820 15.08844495 57684,6917.867,95.437,540.617,538.846,0.0
51787.0,STARLINK-3619,PAYLOAD,2023-03-04 16:41:06,15.08846525,0.0001286,53.216,251.6797,89.714,270.3999,3.7541e-05,3.1e-06,0.0,0 STARLINK-3619,1 51787U 22017V   23063.69521105  .00000310  00000-0  37541-4 0  9991,2 51787  53.2160 251.6797 0001286  89.7140 270.3999 15.08846525 56060,6917.86,95.437,540.615,538.836,0.0
51787.0,STARLINK-3619,PAYLOAD,2023-03-05 11:45:44,15.08836355,0.0001279,53.2145,248.1107,90.9377,269.1761,7.5923e-06,-1.67e-06,0.0,0 STARLINK-3619,1 51787U 22017V   23064.49009598 -.00000167  00000-0  75923-5 0  9995,2 51787  53.2145 248.1107 0001279  90.9377 269.1761 15.08836355 57825,6917.892,95.438,540.641,538.872,0.0
51787.0,STARLINK-3619,PAYLOAD,2023-03-05 19:42:39,15.08846789,0.0001122,53.2152,246.6233,100.7309,259.3809,0.00015689,2.21e-05,0.0,0 STARLINK-3619,1 51787U 22017V   23064.82129031  .00002210  00000-0  15689-3 0  9998,2 51787  53.2152 246.6233 0001122 100.7309 259.3809 15.08846789 57879,6917.86,95.437,540.501,538.948,0.0
51787.0,STARLINK-3619,PAYLOAD,2023-03-06 17:58:02,15.08860403,0.0001034,53.2147,242.4587,96.7222,263.3887,0.00026944,4.005e-05,0.0,0 STARLINK-3619,1 51787U 22017V   23065.74863771  .00004005  00000-0  26944-3 0  9996,2 51787  53.2147 242.4587 0001034  96.7222 263.3887 15.08860403 58016,6917.818,95.436,540.398,538.968,0.0
51787.0,STARLINK-3619,PAYLOAD,2023-03-06 21:08:48,15.08867228,0.0001164,53.2142,241.8639,84.9915,275.121,0.00036564,5.54e-05,0.0,0 STARLINK-3619,1 51787U 22017V   23065.88111353  .00005540  00000-0  36564-3 0  9997,2 51787  53.2142 241.8639 0001164  84.9915 275.1210 15.08867228 56396,6917.797,95.436,540.467,538.857,0.0
51787.0,STARLINK-3619,PAYLOAD,2023-03-07 05:05:44,15.08833429,0.0001174,53.2128,240.3793,88.2306,271.882,-0.00020198,-3.5e-05,0.0,0 STARLINK-3619,1 51787U 22017V   23066.21232605 -.00003500  00000-0 -20198-3 0  9991,2 51787  53.2128 240.3793 0001174  88.2306 271.8820 15.08833429 58081,6917.9,95.438,540.578,538.953,0.0
51787.0,STARLINK-3619,PAYLOAD,2023-03-07 20:59:36,15.08829821,0.0001644,53.2127,237.4039,92.1112,268.0068,-0.00021759,-3.748e-05,0.0,0 STARLINK-3619,1 51787U 22017V   23066.87473334 -.00003748  00000-0 -21759-3 0  9997,2 51787  53.2127 237.4039 0001644  92.1112 268.0068 15.08829821 56543,6917.912,95.438,540.914,538.639,0.0
51787.0,STARLINK-3619,PAYLOAD,2023-03-08 11:18:05,15.08829893,0.0001596,53.212,234.7268,93.2261,266.8914,-5.9223e-05,-1.23e-05,0.0,0 STARLINK-3619,1 51787U 22017V   23067.47089788 -.00001230  00000-0 -59223-4 0  9992,2 51787  53.2120 234.7268 0001596  93.2261 266.8914 15.08829893 58270,6917.911,95.438,540.88,538.672,0.0
51787.0,STARLINK-3619,PAYLOAD,2023-03-08 20:50:24,15.08840215,0.0001641,53.2116,232.9434,88.7662,271.3518,0.00035382,5.348e-05,0.0,0 STARLINK-3619,1 51787U 22017V   23067.86834054  .00005348  00000-0  35382-3 0  9990,2 51787  53.2116 232.9434 0001641  88.7662 271.3518 15.08840215 56691,6917.88,95.438,540.88,538.61,0.0
51787.0,STARLINK-3619,PAYLOAD,2023-03-09 17:30:25,15.08857414,0.0001666,53.2118,229.0768,89.2728,270.8455,0.00080859,0.0001261,0.0,0 STARLINK-3619,1 51787U 22017V   23068.72946014  .00012610  00000-0  80859-3 0  9995,2 51787  53.2118 229.0768 0001666  89.2728 270.8455 15.08857414 58466,6917.827,95.436,540.845,538.54,0.0
51787.0,STARLINK-3619,PAYLOAD,2023-03-09 20:41:11,15.08865365,0.0001503,53.2137,228.4812,85.7536,274.3627,0.001023,0.00016042,0.0,0 STARLINK-3619,1 51787U 22017V   23068.86193850  .00016042  00000-0  10230-2 0  9990,2 51787  53.2137 228.4812 0001503  85.7536 274.3627 15.08865365 56842,6917.803,95.436,540.708,538.628,0.0
51787.0,STARLINK-3619,PAYLOAD,2023-03-10 10:59:40,15.08839069,0.0001192,53.213,225.8047,95.3071,264.8057,3.6802e-05,2.98e-06,0.0,0 STARLINK-3619,1 51787U 22017V   23069.45810232  .00000298  00000-0  36802-4 0  9997,2 51787  53.2130 225.8047 0001192  95.3071 264.8057 15.08839069 58576,6917.883,95.438,540.573,538.924,0.0
51787.0,STARLINK-3619,PAYLOAD,2023-03-10 17:21:12,15.08846215,0.0001237,53.214,224.6164,87.8811,272.2323,0.00050441,7.75e-05,0.0,0 STARLINK-3619,1 51787U 22017V   23069.72306170  .00007750  00000-0  50441-3 0  9992,2 51787  53.2140 224.6164 0001237  87.8811 272.2323 15.08846215 56974,6917.861,95.437,540.582,538.871,0.0
51787.0,STARLINK-3619,PAYLOAD,2023-03-11 10:50:26,15.08853066,5.93e-05,53.213,221.3451,65.7213,294.3841,0.00058222,8.994e-05,0.0,0 STARLINK-3619,1 51787U 22017V   23070.45169933  .00008994  00000-0  58222-3 0  9994,2 51787  53.2130 221.3451 0000593  65.7213 294.3841 15.08853066 58728,6917.84,95.437,540.116,539.295,0.0
51787.0,STARLINK-3619,PAYLOAD,2023-03-11 14:01:12,15.08867558,8.58e-05,53.2152,220.7522,103.7482,256.3606,0.0010603,0.0001664,0.0,0 STARLINK-3619,1 51787U 22017V   23070.58417597  .00016640  00000-0  10603-2 0  9997,2 51787  53.2152 220.7522 0000858 103.7482 256.3606 15.08867558 58749,6917.796,95.436,540.255,539.068,0.0
51787.0,STARLINK-3619,PAYLOAD,2023-03-11 15:36:35,15.08874593,9.06e-05,53.2152,220.4553,94.6413,265.4683,0.0014163,0.00022346,0.0,0 STARLINK-3619,1 51787U 22017V   23070.65041348  .00022346  00000-0  14163-2 0  9997,2 51787  53.2152 220.4553 0000906  94.6413 265.4683 15.08874593 57119,6917.775,95.435,540.266,539.013,0.0
